GLOBALSTAR M075 [+]     
1 37192U 10054E   23281.71118440 -.00000077  00000+0  14874-3 0  9995
2 37192  51.9934 261.6174 0000584  52.8109 118.2757 12.62262060598026
GLOBALSTAR M073 [+]     
1 37193U 10054F   23282.10119156 -.00000094  00000+0  54553-4 0  9993
2 37193  52.0045 173.7778 0000838  73.2741  71.3617 12.62268174599955
GLOBALSTAR M083 [+]     
1 37739U 11033A   23282.03944020 -.00000069  00000+0  19356-3 0  9998
2 37739  51.9837 123.5379 0000631  72.9805  92.2815 12.62270077569275
GLOBALSTAR M088 [+]     
1 37740U 11033B   23282.01478795 -.00000101  00000+0  15838-4 0  9998
2 37740  51.9757  29.6234 0000523  78.4089  94.0579 12.62265961564749
GLOBALSTAR M091 [+]     
1 37741U 11033C   23281.53845722 -.00000076  00000+0  15435-3 0  9996
2 37741  52.0023 353.5279 0000400  62.9863  43.1961 12.62266917565448
GLOBALSTAR M085 [+]     
1 37742U 11033D   23281.99291067 -.00000072  00000+0  17850-3 0  9993
2 37742  51.9867 303.7295 0000349  46.2885  26.7929 12.62263543566241
GLOBALSTAR M081 [+]     
1 37743U 11033E   23282.00487201 -.00000065  00000+0  21894-3 0  9999
2 37743  51.9958 306.0994 0000559  49.0925 318.2218 12.62265225566287
GLOBALSTAR M089 [+]     
1 37744U 11033F   23281.68462156 -.00000073  00000+0  16919-3 0  9996
2 37744  51.9917 261.4172 0000680  81.1564  89.8403 12.62267963566701
